[{"OBJECT_NAME":"ONEWEB-0370","OBJECT_ID":"2021-090T","EPOCH":"2026-03-09T15:04:27.686208","MEAN_MOTION":13.20771133,"ECCENTRICITY":0.0001884,"INCLINATION":87.917,"RA_OF_ASC_NODE":294.3192,"ARG_OF_PERICENTER":80.7826,"MEAN_ANOMALY":279.3521,"EPHEMERIS_TYPE":0,"CLASSIFICATION_TYPE":"U","NORAD_CAT_ID":49296,"ELEMENT_SET_NO":999,"REV_AT_EPOCH":21672,"BSTAR":-0.00033206,"MEAN_MOTION_DOT":-1.22e-6,"MEAN_MOTION_DDOT":0},{"OBJECT_NAME":"COSMOS 1275 DEB","OBJECT_ID":"1981-053NJ","EPOCH":"2026-03-03T04:37:54.258240","MEAN_MOTION":13.57340555,"ECCENTRICITY":0.01922991,"INCLINATION":83.0661,"RA_OF_ASC_NODE":2.1472,"ARG_OF_PERICENTER":325.902,"MEAN_ANOMALY":99.875,"EPHEMERIS_TYPE":0,"CLASSIFICATION_TYPE":"U","NORAD_CAT_ID":39948,"ELEMENT_SET_NO":999,"REV_AT_EPOCH":57980,"BSTAR":0.0017692447,"MEAN_MOTION_DOT":1.438e-5,"MEAN_MOTION_DDOT":0}]
